[
    {
        "Altitude(m)": 605470.7917598935,
        "Argument of Periapsis(deg)": 0.0,
        "Eccentricity": 0.0,
        "Inclination(deg)": 60.0,
        "Latitude(deg)": 27.98821186719203,
        "Longitude(deg)": 57.26290569799986,
        "Mean Anomaly(deg)": -212.72729999999999,
        "RAAN(deg)": 355.0,
        "Satellite Name": "Test1 1571",
        "Satellite Number": 1571,
        "Semi-Major Axis(m)": 6980739.136638005,
        "Time(s)": 0
    },
    {
        "Altitude(m)": 605395.829768891,
        "Argument of Periapsis(deg)": 0.00010418945913296404,
        "Eccentricity": 0.0,
        "Inclination(deg)": 60.0,
        "Latitude(deg)": 27.47390304841542,
        "Longitude(deg)": 57.616094386660045,
        "Mean Anomaly(deg)": -212.1071938545382,
        "RAAN(deg)": 354.99957995086027,
        "Satellite Name": "Test1 1571",
        "Satellite Number": 1571,
        "Semi-Major Axis(m)": 6980739.136638005,
        "Time(s)": 10
    }
]